NORAD_CAT_ID,OBJECT_NAME,OBJECT_TYPE,EPOCH,MEAN_MOTION,ECCENTRICITY,INCLINATION,RA_OF_ASC_NODE,ARG_OF_PERICENTER,MEAN_ANOMALY,BSTAR,MEAN_MOTION_DOT,MEAN_MOTION_DDOT,TLE_LINE0,TLE_LINE1,TLE_LINE2,SEMIMAJOR_AXIS,PERIOD,APOGEE,PERIGEE,DECAYED
55288.0,STARLINK-5311,PAYLOAD,2023-06-03 22:00:00,15.21551034,0.0003123,70.0017,50.9939,270.2142,5.6742,-0.043325,-0.00908249,0.0,0 STARLINK-5311,1 55288U 23010V   23154.91667824 -.00908249  00000-0 -43325-1 0  9994,2 55288  70.0017  50.9939 0003123 270.2142   5.6742 15.21551034 21696,6879.299,94.64,503.312,499.015,0.0
55288.0,STARLINK-5311,PAYLOAD,2023-06-04 16:00:00,15.20116779,0.0003148,70.0016,49.036,269.1614,151.7508,-0.046893,-0.00940048,0.0,0 STARLINK-5311,1 55288U 23010V   23155.66667824 -.00940048  00000-0 -46893-1 0  9993,2 55288  70.0016  49.0360 0003148 269.1614 151.7508 15.20116779  1301,6883.625,94.73,507.657,503.323,0.0
55288.0,STARLINK-5311,PAYLOAD,2023-06-04 22:00:00,15.19594724,0.0003173,70.0015,48.3845,271.5039,76.8949,-0.045871,-0.00908087,0.0,0 STARLINK-5311,1 55288U 23010V   23155.91667824 -.00908087  00000-0 -45871-1 0  9993,2 55288  70.0015  48.3845 0003173 271.5039  76.8949 15.19594724 21841,6885.202,94.762,509.251,504.882,0.0
55288.0,STARLINK-5311,PAYLOAD,2023-06-05 14:00:01,15.18290137,0.0003209,70.0013,46.649,269.0072,123.8758,-0.046269,-0.00883742,0.0,0 STARLINK-5311,1 55288U 23010V   23156.58335648 -.00883742  00000-0 -46269-1 0  9995,2 55288  70.0013  46.6490 0003209 269.0072 123.8758 15.18290137  1305,6889.145,94.844,513.221,508.799,0.0
55288.0,STARLINK-5311,PAYLOAD,2023-06-05 22:00:00,15.17636655,0.0003148,70.0014,45.7827,273.1568,140.7131,-0.048429,-0.00906013,0.0,0 STARLINK-5311,1 55288U 23010V   23156.91667824 -.00906013  00000-0 -48429-1 0  9993,2 55288  70.0014  45.7827 0003148 273.1568 140.7131 15.17636655 22009,6891.122,94.884,515.157,510.818,0.0
55288.0,STARLINK-5311,PAYLOAD,2023-06-06 00:00:00,15.17462886,0.0002954,70.0012,45.5663,274.9353,234.0724,-0.047142,-0.00879457,0.0,0 STARLINK-5311,1 55288U 23010V   23157.00001157 -.00879457  00000-0 -47142-1 0  9997,2 55288  70.0012  45.5663 0002954 274.9353 234.0724 15.17462886  1306,6891.649,94.895,515.549,511.478,0.0
55288.0,STARLINK-5311,PAYLOAD,2023-06-06 14:00:01,15.16339516,0.000308,70.0012,44.0523,269.8629,183.7311,-0.049529,-0.00893645,0.0,0 STARLINK-5311,1 55288U 23010V   23157.58334491 -.00893645  00000-0 -49529-1 0  9996,2 55288  70.0012  44.0523 0003080 269.8629 183.7311 15.16339516  1309,6895.052,94.966,519.041,514.793,0.0
55288.0,STARLINK-5311,PAYLOAD,2023-06-06 20:00:01,15.15870466,0.0003183,70.0013,43.4043,270.3718,107.3195,-0.053645,-0.00950484,0.0,0 STARLINK-5311,1 55288U 23010V   23157.83334491 -.00950484  00000-0 -53645-1 0  9993,2 55288  70.0013  43.4043 0003183 270.3718 107.3195 15.15870466 22139,6896.474,94.995,520.534,516.144,0.0
55288.0,STARLINK-5311,PAYLOAD,2023-06-06 22:00:00,15.15675819,0.0003053,70.0012,43.1885,273.7265,198.5754,-0.050855,-0.00899873,0.0,0 STARLINK-5311,1 55288U 23010V   23157.91667824 -.00899873  00000-0 -50855-1 0  9995,2 55288  70.0012  43.1885 0003053 273.7265 198.5754 15.15675819  1303,6897.065,95.007,521.035,516.824,0.0
55288.0,STARLINK-5311,PAYLOAD,2023-06-07 14:00:01,15.14388997,0.0002985,70.0011,41.4633,269.0606,238.2677,-0.053035,-0.00904421,0.0,0 STARLINK-5311,1 55288U 23010V   23158.58334491 -.00904421  00000-0 -53035-1 0  9999,2 55288  70.0011  41.4633 0002985 269.0606 238.2677 15.14388997 22254,6900.971,95.088,524.896,520.776,0.0
55288.0,STARLINK-5311,PAYLOAD,2023-06-07 22:00:00,15.13715479,0.0002987,70.0011,40.602,273.356,250.3365,-0.053356,-0.00893574,0.0,0 STARLINK-5311,1 55288U 23010V   23158.91667824 -.00893574  00000-0 -53356-1 0  9997,2 55288  70.0011  40.6020 0002987 273.3560 250.3365 15.13715479  1304,6903.018,95.13,526.945,522.821,0.0
55288.0,STARLINK-5311,PAYLOAD,2023-06-08 06:00:00,15.13110414,0.0002911,70.0009,39.7415,274.2672,264.9704,-0.058904,-0.00964035,0.0,0 STARLINK-5311,1 55288U 23010V   23159.25001157 -.00964035  00000-0 -58904-1 0  9991,2 55288  70.0009  39.7415 0002911 274.2672 264.9704 15.13110414 22353,6904.858,95.168,528.733,524.713,0.0
55288.0,STARLINK-5311,PAYLOAD,2023-06-08 14:00:01,15.12437556,0.0002954,70.0012,38.8821,267.3851,286.6374,-0.056617,-0.00913226,0.0,0 STARLINK-5311,1 55288U 23010V   23159.58334491 -.00913226  00000-0 -56617-1 0  9992,2 55288  70.0012  38.8821 0002954 267.3851 286.6374 15.12437556  1301,6906.906,95.211,530.811,526.731,0.0
55288.0,STARLINK-5311,PAYLOAD,2023-06-08 22:00:00,15.11754759,0.0002966,70.0012,38.0233,272.6515,295.3911,-0.055855,-0.00885963,0.0,0 STARLINK-5311,1 55288U 23010V   23159.91667824 -.00885963  00000-0 -55855-1 0  9997,2 55288  70.0012  38.0233 0002966 272.6515 295.3911 15.11754759 22458,6908.985,95.254,532.9,528.801,0.0
55288.0,STARLINK-5311,PAYLOAD,2023-06-09 14:00:01,15.10484063,0.0002999,70.0014,36.3087,266.5479,327.1293,-0.060211,-0.00919308,0.0,0 STARLINK-5311,1 55288U 23010V   23160.58334491 -.00919308  00000-0 -60211-1 0  9996,2 55288  70.0014  36.3087 0002999 266.5479 327.1293 15.10484063 22550,6912.86,95.334,536.798,532.652,0.0
55288.0,STARLINK-5311,PAYLOAD,2023-06-09 22:00:00,15.09794739,0.0002989,70.0015,35.4526,272.2815,333.0703,-0.058499,-0.00879303,0.0,0 STARLINK-5311,1 55288U 23010V   23160.91667824 -.00879303  00000-0 -58499-1 0  9997,2 55288  70.0015  35.4526 0002989 272.2815 333.0703 15.09794739  1300,6914.964,95.377,538.896,534.762,0.0
55288.0,STARLINK-5311,PAYLOAD,2023-06-10 06:00:02,15.09194264,0.000298,70.0014,34.5975,272.5429,343.724,-0.065601,-0.00962953,0.0,0 STARLINK-5311,1 55288U 23010V   23161.25002315 -.00962953  00000-0 -65601-1 0  9990,2 55288  70.0014  34.5975 0002980 272.5429 343.7240 15.09194264 22654,6916.798,95.415,540.724,536.602,0.0
55288.0,STARLINK-5311,PAYLOAD,2023-06-10 14:00:01,15.0853087,0.0003049,70.0017,33.7434,266.3266,359.9646,-0.063988,-0.0092531,0.0,0 STARLINK-5311,1 55288U 23010V   23161.58334491 -.00925310  00000-0 -63988-1 0  9991,2 55288  70.0017  33.7434 0003049 266.3266 359.9646 15.08530870  1309,6918.825,95.457,542.8,538.581,0.0
55288.0,STARLINK-5311,PAYLOAD,2023-06-10 22:00:00,15.07835992,0.0003021,70.0018,32.89,272.5775,3.0423,-0.061357,-0.00874358,0.0,0 STARLINK-5311,1 55288U 23010V   23161.91667824 -.00874358  00000-0 -61357-1 0  9990,2 55288  70.0018  32.8900 0003021 272.5775   3.0423 15.07835992 22756,6920.951,95.501,544.907,540.725,0.0
55288.0,STARLINK-5311,PAYLOAD,2023-06-11 14:00:01,15.06576663,0.0003088,70.002,31.186,266.7801,25.0847,-0.067848,-0.00929842,0.0,0 STARLINK-5311,1 55288U 23010V   23162.58334491 -.00929842  00000-0 -67848-1 0  9995,2 55288  70.0020  31.1860 0003088 266.7801  25.0847 15.06576663 22855,6924.807,95.581,548.811,544.534,0.0
55288.0,STARLINK-5311,PAYLOAD,2023-06-11 22:00:00,15.05877545,0.0003044,70.002,30.3352,273.2645,25.5829,-0.064382,-0.00870236,0.0,0 STARLINK-5311,1 55288U 23010V   23162.91667824 -.00870236  00000-0 -64382-1 0  9993,2 55288  70.0020  30.3352 0003044 273.2645  25.5829 15.05877545  1307,6926.95,95.625,550.924,546.707,0.0
55288.0,STARLINK-5311,PAYLOAD,2023-06-12 14:00:01,15.0462088,0.0003099,70.0021,28.6364,267.5492,42.9118,-0.071698,-0.00931895,0.0,0 STARLINK-5311,1 55288U 23010V   23163.58335648 -.00931895  00000-0 -71698-1 0  9990,2 55288  70.0021  28.6364 0003099 267.5492  42.9118 15.04620880 23009,6930.807,95.705,554.82,550.524,0.0
55288.0,STARLINK-5311,PAYLOAD,2023-06-13 00:00:00,15.03774563,0.0003072,70.0021,27.5763,277.1793,128.8759,-0.069509,-0.00886638,0.0,0 STARLINK-5311,1 55288U 23010V   23164.00001157 -.00886638  00000-0 -69509-1 0  9995,2 55288  70.0021  27.5763 0003072 277.1793 128.8759 15.03774563  1303,6933.407,95.759,557.402,553.142,0.0
55288.0,STARLINK-5311,PAYLOAD,2023-06-13 14:00:01,15.02665609,0.0003097,70.002,26.0945,267.9218,53.9692,-0.075774,-0.00934502,0.0,0 STARLINK-5311,1 55288U 23010V   23164.58334491 -.00934502  00000-0 -75774-1 0  9993,2 55288  70.0020  26.0945 0003097 267.9218  53.9692 15.02665609  1307,6936.818,95.83,560.831,556.534,0.0
55288.0,STARLINK-5311,PAYLOAD,2023-06-13 22:00:00,15.01967741,0.0003098,70.0019,25.2488,274.3861,49.792,-0.071712,-0.00872831,0.0,0 STARLINK-5311,1 55288U 23010V   23164.91667824 -.00872831  00000-0 -71712-1 0  9993,2 55288  70.0019  25.2488 0003098 274.3861  49.7920 15.01967741 23206,6938.966,95.874,562.981,558.681,0.0
55288.0,STARLINK-5311,PAYLOAD,2023-06-14 14:00:01,15.00712738,0.0003137,70.0018,23.56,267.5401,58.8024,-0.080391,-0.00951827,0.0,0 STARLINK-5311,1 55288U 23010V   23165.58334491 -.00951827  00000-0 -80391-1 0  9994,2 55288  70.0018  23.5600 0003137 267.5401  58.8024 15.00712738 23300,6942.834,95.954,566.877,562.521,0.0
55288.0,STARLINK-5311,PAYLOAD,2023-06-14 22:00:00,14.9996946,0.0003156,70.0018,22.7168,274.2193,52.0726,-0.066184,-0.0077101,0.0,0 STARLINK-5311,1 55288U 23010V   23165.91667824 -.00771010  00000-0 -66184-1 0  9998,2 55288  70.0018  22.7168 0003156 274.2193  52.0726 14.99969460  1308,6945.128,96.002,569.184,564.801,0.0
55288.0,STARLINK-5311,PAYLOAD,2023-06-15 06:00:00,14.99336192,0.0003089,70.0014,21.8745,273.168,52.2461,-0.0069266,-0.00083921,0.0,0 STARLINK-5311,1 55288U 23010V   23166.25001157 -.00083921  00000-0 -69266-2 0  9999,2 55288  70.0014  21.8745 0003089 273.1680  52.2461 14.99336192 23402,6947.083,96.043,571.094,566.802,0.0
55288.0,STARLINK-5311,PAYLOAD,2023-06-15 14:00:01,14.99292385,0.0003115,70.0016,21.0325,267.394,56.6687,0.0020352,0.00024892,0.0,0 STARLINK-5311,1 55288U 23010V   23166.58334491  .00024892  00000-0  20352-2 0  9998,2 55288  70.0016  21.0325 0003115 267.3940  56.6687 14.99292385 23452,6947.218,96.045,571.247,566.919,0.0
55288.0,STARLINK-5311,PAYLOAD,2023-06-15 20:00:01,14.99317017,0.0003175,70.0015,20.4015,270.9573,322.0954,-0.0030041,-0.00036677,0.0,0 STARLINK-5311,1 55288U 23010V   23166.83334491 -.00036677  00000-0 -30041-2 0  9998,2 55288  70.0015  20.4015 0003175 270.9573 322.0954 14.99317017  1305,6947.142,96.044,571.213,566.802,0.0
